start=new Date('2022-05-04T00:00:00.000Z').valueOf();
sats=[{"ARG_OF_PERICENTER":"87.0248","TIME_SYSTEM":"UTC","RCS_SIZE":"LARGE","SITE":"AFETR","EPHEMERIS_TYPE":"0","ECCENTRICITY":"0.00012970","COUNTRY_CODE":"US","MEAN_MOTION_DDOT":"0.0000000000000","CLASSIFICATION_TYPE":"U","MEAN_MOTION_DOT":"0.00000786","ELEMENT_SET_NO":"999","SEMIMAJOR_AXIS":"6925.339","CENTER_NAME":"EARTH","TLE_LINE2":"2 48597  53.0542 332.7433 0001297  87.0248 273.0890 15.06403279 54439","RA_OF_ASC_NODE":"332.7433","APOAPSIS":"548.102","MEAN_ELEMENT_THEORY":"SGP4","REV_AT_EPOCH":"5443","OBJECT_ID":"2021-041AW","BSTAR":"0.00007162100000","TLE_LINE1":"1 48597U 21041AW  22123.83840355  .00000786  00000-0  71621-4 0  9999","PERIOD":"95.592","MEAN_MOTION":"15.06403279","MEAN_ANOMALY":"273.0890","REF_FRAME":"TEME","EPOCH":"2022-05-03T20:07:18.066720","FILE":"3427573","INCLINATION":"53.0542","OBJECT_TYPE":"PAYLOAD","DECAY_DATE":null,"LAUNCH_DATE":"2021-05-15","PERIAPSIS":"546.305","OBJECT_NAME":"STARLINK-2255","GP_ID":"202633952","NORAD_CAT_ID":"48597"},{"OBJECT_TYPE":"PAYLOAD","FILE":"3427159","INCLINATION":"53.0557","DECAY_DATE":null,"OBJECT_NAME":"STARLINK-2256","GP_ID":"202600781","NORAD_CAT_ID":"48598","PERIAPSIS":"546.229","LAUNCH_DATE":"2021-05-15","REF_FRAME":"TEME","EPOCH":"2022-05-03T07:28:18.114528","MEAN_ANOMALY":"281.2493","PERIOD":"95.592","MEAN_MOTION":"15.06395127","BSTAR":"0.00004755100000","OBJECT_ID":"2021-041AX","TLE_LINE1":"1 48598U 21041AX  22123.31132077  .00000427  00000-0  47551-4 0  9995","RA_OF_ASC_NODE":"335.0964","CENTER_NAME":"EARTH","TLE_LINE2":"2 48598  53.0557 335.0964 0001443  78.8658 281.2493 15.06395127 53540","MEAN_ELEMENT_THEORY":"SGP4","APOAPSIS":"548.228","REV_AT_EPOCH":"5354","MEAN_MOTION_DOT":"0.00000427","ELEMENT_SET_NO":"999","SEMIMAJOR_AXIS":"6925.363","EPHEMERIS_TYPE":"0","SITE":"AFETR","ECCENTRICITY":"0.00014430","MEAN_MOTION_DDOT":"0.0000000000000","COUNTRY_CODE":"US","CLASSIFICATION_TYPE":"U","ARG_OF_PERICENTER":"78.8658","RCS_SIZE":"LARGE","TIME_SYSTEM":"UTC"},{"TLE_LINE1":"1 48599U 21041AY  22123.80200384  .00001940  00000-0  14910-3 0  9990","BSTAR":"0.00014910000000","OBJECT_ID":"2021-041AY","MEAN_MOTION":"15.06401407","PERIOD":"95.592","REF_FRAME":"TEME","MEAN_ANOMALY":"288.4985","EPOCH":"2022-05-03T19:14:53.131776","PERIAPSIS":"546.137","LAUNCH_DATE":"2021-05-15","NORAD_CAT_ID":"48599","GP_ID":"202634454","OBJECT_NAME":"STARLINK-2274","DECAY_DATE":null,"FILE":"3427573","INCLINATION":"53.0565","OBJECT_TYPE":"PAYLOAD","TIME_SYSTEM":"UTC","RCS_SIZE":"LARGE","ARG_OF_PERICENTER":"71.6173","CLASSIFICATION_TYPE":"U","COUNTRY_CODE":"US","MEAN_MOTION_DDOT":"0.0000000000000","ECCENTRICITY":"0.00015490","EPHEMERIS_TYPE":"0","SITE":"AFETR","SEMIMAJOR_AXIS":"6925.344","ELEMENT_SET_NO":"999","MEAN_MOTION_DOT":"0.00001940","REV_AT_EPOCH":"5478","APOAPSIS":"548.282","MEAN_ELEMENT_THEORY":"SGP4","TLE_LINE2":"2 48599  53.0565 307.8907 0001549  71.6173 288.4985 15.06401407 54785","CENTER_NAME":"EARTH","RA_OF_ASC_NODE":"307.8907"},{"EPOCH":"2022-05-03T20:08:37.775904","MEAN_ANOMALY":"265.3235","REF_FRAME":"TEME","INCLINATION":"53.0552","FILE":"3427573","OBJECT_TYPE":"PAYLOAD","DECAY_DATE":null,"LAUNCH_DATE":"2021-05-15","PERIAPSIS":"546.269","NORAD_CAT_ID":"48600","GP_ID":"202634705","OBJECT_NAME":"STARLINK-2275","BSTAR":"0.00041020000000","OBJECT_ID":"2021-041AZ","TLE_LINE1":"1 48600U 21041AZ  22123.83932611  .00005835  00000-0  41020-3 0  9990","PERIOD":"95.592","MEAN_MOTION":"15.06409996","ELEMENT_SET_NO":"999","MEAN_MOTION_DOT":"0.00005835","SEMIMAJOR_AXIS":"6925.318","CENTER_NAME":"EARTH","TLE_LINE2":"2 48600  53.0552 322.7162 0001319  94.7905 265.3235 15.06409996 54577","RA_OF_ASC_NODE":"322.7162","APOAPSIS":"548.096","MEAN_ELEMENT_THEORY":"SGP4","REV_AT_EPOCH":"5457","ARG_OF_PERICENTER":"94.7905","TIME_SYSTEM":"UTC","RCS_SIZE":"LARGE","EPHEMERIS_TYPE":"0","SITE":"AFETR","ECCENTRICITY":"0.00013190","MEAN_MOTION_DDOT":"0.0000000000000","COUNTRY_CODE":"US","CLASSIFICATION_TYPE":"U"},{"SITE":"AFETR","EPHEMERIS_TYPE":"0","ECCENTRICITY":"0.00015080","COUNTRY_CODE":"US","MEAN_MOTION_DDOT":"0.0000000000000","CLASSIFICATION_TYPE":"U","ARG_OF_PERICENTER":"67.4747","RCS_SIZE":"LARGE","TIME_SYSTEM":"UTC","RA_OF_ASC_NODE":"308.0423","CENTER_NAME":"EARTH","TLE_LINE2":"2 48602  53.0563 308.0423 0001508  67.4747 292.6402 15.06397722 54762","MEAN_ELEMENT_THEORY":"SGP4","APOAPSIS":"548.265","REV_AT_EPOCH":"5476","ELEMENT_SET_NO":"999","MEAN_MOTION_DOT":"0.00002873","SEMIMAJOR_AXIS":"6925.356","PERIOD":"95.592","MEAN_MOTION":"15.06397722","BSTAR":"0.00021169000000","OBJECT_ID":"2021-041BB","TLE_LINE1":"1 48602U 21041BB  22123.76883724  .00002873  00000-0  21169-3 0  9995","OBJECT_TYPE":"PAYLOAD","FILE":"3427573","INCLINATION":"53.0563","DECAY_DATE":null,"NORAD_CAT_ID":"48602","GP_ID":"202633453","OBJECT_NAME":"STARLINK-2713","LAUNCH_DATE":"2021-05-15","PERIAPSIS":"546.176","MEAN_ANOMALY":"292.6402","REF_FRAME":"TEME","EPOCH":"2022-05-03T18:27:07.537536"},{"REV_AT_EPOCH":"5483","APOAPSIS":"548.289","MEAN_ELEMENT_THEORY":"SGP4","RA_OF_ASC_NODE":"303.4267","TLE_LINE2":"2 48603  53.0550 303.4267 0001499  69.1398 290.9751 15.06387803 54839","CENTER_NAME":"EARTH","SEMIMAJOR_AXIS":"6925.386","ELEMENT_SET_NO":"999","MEAN_MOTION_DOT":"0.00000780","CLASSIFICATION_TYPE":"U","COUNTRY_CODE":"US","MEAN_MOTION_DDOT":"0.0000000000000","ECCENTRICITY":"0.00014990","SITE":"AFETR","EPHEMERIS_TYPE":"0","RCS_SIZE":"LARGE","TIME_SYSTEM":"UTC","ARG_OF_PERICENTER":"69.1398","NORAD_CAT_ID":"48603","GP_ID":"202634200","OBJECT_NAME":"STARLINK-2714","LAUNCH_DATE":"2021-05-15","PERIAPSIS":"546.213","DECAY_DATE":null,"OBJECT_TYPE":"PAYLOAD","FILE":"3427573","INCLINATION":"53.0550","MEAN_ANOMALY":"290.9751","REF_FRAME":"TEME","EPOCH":"2022-05-03T16:21:42.293664","MEAN_MOTION":"15.06387803","PERIOD":"95.593","TLE_LINE1":"1 48603U 21041BC  22123.68173951  .00000780  00000-0  71299-4 0  9996","OBJECT_ID":"2021-041BC","BSTAR":"0.00007129900000"},{"ARG_OF_PERICENTER":"65.5193","TIME_SYSTEM":"UTC","RCS_SIZE":"LARGE","SITE":"AFETR","EPHEMERIS_TYPE":"0","ECCENTRICITY":"0.00015860","MEAN_MOTION_DDOT":"0.0000000000000","COUNTRY_CODE":"US","CLASSIFICATION_TYPE":"U","MEAN_MOTION_DOT":"0.00000915","ELEMENT_SET_NO":"999","SEMIMAJOR_AXIS":"6925.361","TLE_LINE2":"2 48604  53.0553 333.1385 0001586  65.5193 294.5961 15.06395978 54424","CENTER_NAME":"EARTH","RA_OF_ASC_NODE":"333.1385","APOAPSIS":"548.324","MEAN_ELEMENT_THEORY":"SGP4","REV_AT_EPOCH":"5442","OBJECT_ID":"2021-041BD","BSTAR":"0.00008032000000","TLE_LINE1":"1 48604U 21041BD  22123.74993699  .00000915  00000-0  80320-4 0  9998","PERIOD":"95.592","MEAN_MOTION":"15.06395978","EPOCH":"2022-05-03T17:59:54.555936","REF_FRAME":"TEME","MEAN_ANOMALY":"294.5961","FILE":"3427573","INCLINATION":"53.0553","OBJECT_TYPE":"PAYLOAD","DECAY_DATE":null,"LAUNCH_DATE":"2021-05-15","PERIAPSIS":"546.128","GP_ID":"202634953","OBJECT_NAME":"STARLINK-2757","NORAD_CAT_ID":"48604"},{"APOAPSIS":"548.204","MEAN_ELEMENT_THEORY":"SGP4","TLE_LINE2":"2 48638  53.0549 307.7591 0001415  77.5580 282.5567 15.06396682 51885","CENTER_NAME":"EARTH","RA_OF_ASC_NODE":"307.7591","REV_AT_EPOCH":"5188","MEAN_MOTION_DOT":"0.00000538","ELEMENT_SET_NO":"999","SEMIMAJOR_AXIS":"6925.359","ECCENTRICITY":"0.00014150","SITE":"AFETR","EPHEMERIS_TYPE":"0","CLASSIFICATION_TYPE":"U","COUNTRY_CODE":"US","MEAN_MOTION_DDOT":"0.0000000000000","TIME_SYSTEM":"UTC","RCS_SIZE":"LARGE","ARG_OF_PERICENTER":"77.5580","DECAY_DATE":null,"FILE":"3427573","INCLINATION":"53.0549","OBJECT_TYPE":"PAYLOAD","LAUNCH_DATE":"2021-05-26","PERIAPSIS":"546.244","OBJECT_NAME":"STARLINK-2758","GP_ID":"202633957","NORAD_CAT_ID":"48638","EPOCH":"2022-05-03T20:01:17.809824","REF_FRAME":"TEME","MEAN_ANOMALY":"282.5567","MEAN_MOTION":"15.06396682","PERIOD":"95.592","BSTAR":"0.00005504700000","OBJECT_ID":"2021-044A","TLE_LINE1":"1 48638U 21044A   22123.83423391  .00000538  00000-0  55047-4 0  9994"},{"TLE_LINE1":"1 48639U 21044B   22123.48776353  .00000054  00000-0  22532-4 0  9991","BSTAR":"0.00002253200000","OBJECT_ID":"2021-044B","PERIOD":"95.593","MEAN_MOTION":"15.06389538","EPOCH":"2022-05-03T11:42:22.768992","REF_FRAME":"TEME","MEAN_ANOMALY":"289.9265","PERIAPSIS":"546.247","LAUNCH_DATE":"2021-05-26","OBJECT_NAME":"STARLINK-2739","GP_ID":"202577024","NORAD_CAT_ID":"48639","INCLINATION":"53.0567","FILE":"3427070","OBJECT_TYPE":"PAYLOAD","DECAY_DATE":null,"ARG_OF_PERICENTER":"70.1880","TIME_SYSTEM":"UTC","RCS_SIZE":"LARGE","MEAN_MOTION_DDOT":"0.0000000000000","COUNTRY_CODE":"US","CLASSIFICATION_TYPE":"U","EPHEMERIS_TYPE":"0","SITE":"AFETR","ECCENTRICITY":"0.00014420","SEMIMAJOR_AXIS":"6925.381","ELEMENT_SET_NO":"999","MEAN_MOTION_DOT":"0.00000054","REV_AT_EPOCH":"5273","TLE_LINE2":"2 48639  53.0567 309.3119 0001442  70.1880 289.9265 15.06389538 52735","CENTER_NAME":"EARTH","RA_OF_ASC_NODE":"309.3119","APOAPSIS":"548.244","MEAN_ELEMENT_THEORY":"SGP4"},{"APOAPSIS":"548.297","MEAN_ELEMENT_THEORY":"SGP4","RA_OF_ASC_NODE":"307.9690","CENTER_NAME":"EARTH","TLE_LINE2":"2 48640  53.0554 307.9690 0001553  69.6763 290.4393 15.06397250 51870","REV_AT_EPOCH":"5187","ELEMENT_SET_NO":"999","MEAN_MOTION_DOT":"0.00000883","SEMIMAJOR_AXIS":"6925.357","ECCENTRICITY":"0.00015530","SITE":"AFETR","EPHEMERIS_TYPE":"0","CLASSIFICATION_TYPE":"U","COUNTRY_CODE":"US","MEAN_MOTION_DDOT":"0.0000000000000","RCS_SIZE":"LARGE","TIME_SYSTEM":"UTC","ARG_OF_PERICENTER":"69.6763","DECAY_DATE":null,"OBJECT_TYPE":"PAYLOAD","FILE":"3427573","INCLINATION":"53.0554","NORAD_CAT_ID":"48640","GP_ID":"202634459","OBJECT_NAME":"STARLINK-2736","LAUNCH_DATE":"2021-05-26","PERIAPSIS":"546.146","REF_FRAME":"TEME","EPOCH":"2022-05-03T18:52:18.610464","MEAN_ANOMALY":"290.4393","MEAN_MOTION":"15.06397250","PERIOD":"95.592","BSTAR":"0.00007815800000","OBJECT_ID":"2021-044C","TLE_LINE1":"1 48640U 21044C   22123.78632651  .00000883  00000-0  78158-4 0  9993"}];
